<?xml version="1.0" encoding="UTF-8"?>
<ndm xmlns:xsi="http://www.w3.org/2001/XMLSchema-instance" xsi:noNamespaceSchemaLocation="https://sanaregistry.org/r/ndmxml_unqualified/ndmxml-2.0.0-master-2.0.xsd">
<omm id="CCSDS_OMM_VERS" version="2.0">
<header><CREATION_DATE/><ORIGINATOR/></header><body><segment><metadata><OBJECT_NAME>ONEWEB-0574</OBJECT_NAME><OBJECT_ID>2023-043T</OBJECT_ID><CENTER_NAME>EARTH</CENTER_NAME><REF_FRAME>TEME</REF_FRAME><TIME_SYSTEM>UTC</TIME_SYSTEM><MEAN_ELEMENT_THEORY>SGP4</MEAN_ELEMENT_THEORY></metadata><data><meanElements><EPOCH>2023-12-01T18:36:34.327584</EPOCH><MEAN_MOTION>13.21828468</MEAN_MOTION><ECCENTRICITY>.0001753</ECCENTRICITY><INCLINATION>87.9261</INCLINATION><RA_OF_ASC_NODE>68.8020</RA_OF_ASC_NODE><ARG_OF_PERICENTER>108.0994</ARG_OF_PERICENTER><MEAN_ANOMALY>252.0331</MEAN_ANOMALY></meanElements><tleParameters><EPHEMERIS_TYPE>0</EPHEMERIS_TYPE><CLASSIFICATION_TYPE>U</CLASSIFICATION_TYPE><NORAD_CAT_ID>56063</NORAD_CAT_ID><ELEMENT_SET_NO>999</ELEMENT_SET_NO><REV_AT_EPOCH>3653</REV_AT_EPOCH><BSTAR>.27288E-3</BSTAR><MEAN_MOTION_DOT>.126E-5</MEAN_MOTION_DOT><MEAN_MOTION_DDOT>0</MEAN_MOTION_DDOT></tleParameters></data></segment></body></omm>
<omm id="CCSDS_OMM_VERS" version="2.0">
<header><CREATION_DATE/><ORIGINATOR/></header><body><segment><metadata><OBJECT_NAME>ONEWEB-0575</OBJECT_NAME><OBJECT_ID>2023-043U</OBJECT_ID><CENTER_NAME>EARTH</CENTER_NAME><REF_FRAME>TEME</REF_FRAME><TIME_SYSTEM>UTC</TIME_SYSTEM><MEAN_ELEMENT_THEORY>SGP4</MEAN_ELEMENT_THEORY></metadata><data><meanElements><EPOCH>2023-12-01T06:57:48.644640</EPOCH><MEAN_MOTION>13.29943586</MEAN_MOTION><ECCENTRICITY>.0001576</ECCENTRICITY><INCLINATION>87.9595</INCLINATION><RA_OF_ASC_NODE>53.6488</RA_OF_ASC_NODE><ARG_OF_PERICENTER>85.8603</ARG_OF_PERICENTER><MEAN_ANOMALY>274.2716</MEAN_ANOMALY></meanElements><tleParameters><EPHEMERIS_TYPE>0</EPHEMERIS_TYPE><CLASSIFICATION_TYPE>U</CLASSIFICATION_TYPE><NORAD_CAT_ID>56064</NORAD_CAT_ID><ELEMENT_SET_NO>999</ELEMENT_SET_NO><REV_AT_EPOCH>3763</REV_AT_EPOCH><BSTAR>.21792E-3</BSTAR><MEAN_MOTION_DOT>.115E-5</MEAN_MOTION_DOT><MEAN_MOTION_DDOT>0</MEAN_MOTION_DDOT></tleParameters></data></segment></body></omm>
<omm id="CCSDS_OMM_VERS" version="2.0">
<header><CREATION_DATE/><ORIGINATOR/></header><body><segment><metadata><OBJECT_NAME>ONEWEB-0576</OBJECT_NAME><OBJECT_ID>2023-043V</OBJECT_ID><CENTER_NAME>EARTH</CENTER_NAME><REF_FRAME>TEME</REF_FRAME><TIME_SYSTEM>UTC</TIME_SYSTEM><MEAN_ELEMENT_THEORY>SGP4</MEAN_ELEMENT_THEORY></metadata><data><meanElements><EPOCH>2023-12-01T04:24:00.577728</EPOCH><MEAN_MOTION>13.29429468</MEAN_MOTION><ECCENTRICITY>.000035</ECCENTRICITY><INCLINATION>87.9509</INCLINATION><RA_OF_ASC_NODE>53.6780</RA_OF_ASC_NODE><ARG_OF_PERICENTER>100.2945</ARG_OF_PERICENTER><MEAN_ANOMALY>259.8233</MEAN_ANOMALY></meanElements><tleParameters><EPHEMERIS_TYPE>0</EPHEMERIS_TYPE><CLASSIFICATION_TYPE>U</CLASSIFICATION_TYPE><NORAD_CAT_ID>56065</NORAD_CAT_ID><ELEMENT_SET_NO>999</ELEMENT_SET_NO><REV_AT_EPOCH>3761</REV_AT_EPOCH><BSTAR>.2494E-3</BSTAR><MEAN_MOTION_DOT>.129E-5</MEAN_MOTION_DOT><MEAN_MOTION_DDOT>0</MEAN_MOTION_DDOT></tleParameters></data></segment></body></omm>
<omm id="CCSDS_OMM_VERS" version="2.0">
<header><CREATION_DATE/><ORIGINATOR/></header><body><segment><metadata><OBJECT_NAME>ONEWEB-0577</OBJECT_NAME><OBJECT_ID>2023-043W</OBJECT_ID><CENTER_NAME>EARTH</CENTER_NAME><REF_FRAME>TEME</REF_FRAME><TIME_SYSTEM>UTC</TIME_SYSTEM><MEAN_ELEMENT_THEORY>SGP4</MEAN_ELEMENT_THEORY></metadata><data><meanElements><EPOCH>2023-12-01T05:04:31.085760</EPOCH><MEAN_MOTION>13.29902940</MEAN_MOTION><ECCENTRICITY>.0001512</ECCENTRICITY><INCLINATION>87.9608</INCLINATION><RA_OF_ASC_NODE>53.6598</RA_OF_ASC_NODE><ARG_OF_PERICENTER>54.8479</ARG_OF_PERICENTER><MEAN_ANOMALY>305.2801</MEAN_ANOMALY></meanElements><tleParameters><EPHEMERIS_TYPE>0</EPHEMERIS_TYPE><CLASSIFICATION_TYPE>U</CLASSIFICATION_TYPE><NORAD_CAT_ID>56066</NORAD_CAT_ID><ELEMENT_SET_NO>999</ELEMENT_SET_NO><REV_AT_EPOCH>3764</REV_AT_EPOCH><BSTAR>.25516E-3</BSTAR><MEAN_MOTION_DOT>.132E-5</MEAN_MOTION_DOT><MEAN_MOTION_DDOT>0</MEAN_MOTION_DDOT></tleParameters></data></segment></body></omm>
<omm id="CCSDS_OMM_VERS" version="2.0">
<header><CREATION_DATE/><ORIGINATOR/></header><body><segment><metadata><OBJECT_NAME>ONEWEB-0578</OBJECT_NAME><OBJECT_ID>2023-043X</OBJECT_ID><CENTER_NAME>EARTH</CENTER_NAME><REF_FRAME>TEME</REF_FRAME><TIME_SYSTEM>UTC</TIME_SYSTEM><MEAN_ELEMENT_THEORY>SGP4</MEAN_ELEMENT_THEORY></metadata><data><meanElements><EPOCH>2023-12-01T18:18:24.905664</EPOCH><MEAN_MOTION>13.21825941</MEAN_MOTION><ECCENTRICITY>.0001853</ECCENTRICITY><INCLINATION>87.9262</INCLINATION><RA_OF_ASC_NODE>68.7994</RA_OF_ASC_NODE><ARG_OF_PERICENTER>102.7855</ARG_OF_PERICENTER><MEAN_ANOMALY>257.3486</MEAN_ANOMALY></meanElements><tleParameters><EPHEMERIS_TYPE>0</EPHEMERIS_TYPE><CLASSIFICATION_TYPE>U</CLASSIFICATION_TYPE><NORAD_CAT_ID>56067</NORAD_CAT_ID><ELEMENT_SET_NO>999</ELEMENT_SET_NO><REV_AT_EPOCH>3649</REV_AT_EPOCH><BSTAR>.17496E-3</BSTAR><MEAN_MOTION_DOT>.85E-6</MEAN_MOTION_DOT><MEAN_MOTION_DDOT>0</MEAN_MOTION_DDOT></tleParameters></data></segment></body></omm>
<omm id="CCSDS_OMM_VERS" version="2.0">
<header><CREATION_DATE/><ORIGINATOR/></header><body><segment><metadata><OBJECT_NAME>ONEWEB-0579</OBJECT_NAME><OBJECT_ID>2023-043Y</OBJECT_ID><CENTER_NAME>EARTH</CENTER_NAME><REF_FRAME>TEME</REF_FRAME><TIME_SYSTEM>UTC</TIME_SYSTEM><MEAN_ELEMENT_THEORY>SGP4</MEAN_ELEMENT_THEORY></metadata><data><meanElements><EPOCH>2023-12-01T05:21:46.154304</EPOCH><MEAN_MOTION>13.21826996</MEAN_MOTION><ECCENTRICITY>.0001174</ECCENTRICITY><INCLINATION>87.9257</INCLINATION><RA_OF_ASC_NODE>68.9080</RA_OF_ASC_NODE><ARG_OF_PERICENTER>105.4422</ARG_OF_PERICENTER><MEAN_ANOMALY>254.6842</MEAN_ANOMALY></meanElements><tleParameters><EPHEMERIS_TYPE>0</EPHEMERIS_TYPE><CLASSIFICATION_TYPE>U</CLASSIFICATION_TYPE><NORAD_CAT_ID>56068</NORAD_CAT_ID><ELEMENT_SET_NO>999</ELEMENT_SET_NO><REV_AT_EPOCH>3643</REV_AT_EPOCH><BSTAR>.43354E-3</BSTAR><MEAN_MOTION_DOT>.192E-5</MEAN_MOTION_DOT><MEAN_MOTION_DDOT>0</MEAN_MOTION_DDOT></tleParameters></data></segment></body></omm>
<omm id="CCSDS_OMM_VERS" version="2.0">
<header><CREATION_DATE/><ORIGINATOR/></header><body><segment><metadata><OBJECT_NAME>ONEWEB-0581</OBJECT_NAME><OBJECT_ID>2023-043Z</OBJECT_ID><CENTER_NAME>EARTH</CENTER_NAME><REF_FRAME>TEME</REF_FRAME><TIME_SYSTEM>UTC</TIME_SYSTEM><MEAN_ELEMENT_THEORY>SGP4</MEAN_ELEMENT_THEORY></metadata><data><meanElements><EPOCH>2023-12-01T07:07:12.072864</EPOCH><MEAN_MOTION>13.29228509</MEAN_MOTION><ECCENTRICITY>.0000244</ECCENTRICITY><INCLINATION>87.9484</INCLINATION><RA_OF_ASC_NODE>53.6866</RA_OF_ASC_NODE><ARG_OF_PERICENTER>37.5948</ARG_OF_PERICENTER><MEAN_ANOMALY>322.5207</MEAN_ANOMALY></meanElements><tleParameters><EPHEMERIS_TYPE>0</EPHEMERIS_TYPE><CLASSIFICATION_TYPE>U</CLASSIFICATION_TYPE><NORAD_CAT_ID>56069</NORAD_CAT_ID><ELEMENT_SET_NO>999</ELEMENT_SET_NO><REV_AT_EPOCH>3762</REV_AT_EPOCH><BSTAR>.25062E-3</BSTAR><MEAN_MOTION_DOT>.129E-5</MEAN_MOTION_DOT><MEAN_MOTION_DDOT>0</MEAN_MOTION_DDOT></tleParameters></data></segment></body></omm>
<omm id="CCSDS_OMM_VERS" version="2.0">
<header><CREATION_DATE/><ORIGINATOR/></header><body><segment><metadata><OBJECT_NAME>ONEWEB-0609</OBJECT_NAME><OBJECT_ID>2023-043AA</OBJECT_ID><CENTER_NAME>EARTH</CENTER_NAME><REF_FRAME>TEME</REF_FRAME><TIME_SYSTEM>UTC</TIME_SYSTEM><MEAN_ELEMENT_THEORY>SGP4</MEAN_ELEMENT_THEORY></metadata><data><meanElements><EPOCH>2023-12-01T05:16:09.321312</EPOCH><MEAN_MOTION>13.15553559</MEAN_MOTION><ECCENTRICITY>.0001572</ECCENTRICITY><INCLINATION>87.8983</INCLINATION><RA_OF_ASC_NODE>84.1546</RA_OF_ASC_NODE><ARG_OF_PERICENTER>106.6407</ARG_OF_PERICENTER><MEAN_ANOMALY>253.4896</MEAN_ANOMALY></meanElements><tleParameters><EPHEMERIS_TYPE>0</EPHEMERIS_TYPE><CLASSIFICATION_TYPE>U</CLASSIFICATION_TYPE><NORAD_CAT_ID>56070</NORAD_CAT_ID><ELEMENT_SET_NO>999</ELEMENT_SET_NO><REV_AT_EPOCH>3520</REV_AT_EPOCH><BSTAR>.74285E-3</BSTAR><MEAN_MOTION_DOT>.293E-5</MEAN_MOTION_DOT><MEAN_MOTION_DDOT>0</MEAN_MOTION_DDOT></tleParameters></data></segment></body></omm>

</ndm>
