ONEWEB-0574             
1 56063U 23043T   23335.77539731  .00000126  00000+0  27288-3 0  9998
2 56063  87.9261  68.8020 0001753 108.0994 252.0331 13.21828468 36532
ONEWEB-0575             
1 56064U 23043U   23335.29014635  .00000115  00000+0  21792-3 0  9999
2 56064  87.9595  53.6488 0001576  85.8603 274.2716 13.29943586 37637
ONEWEB-0576             
1 56065U 23043V   23335.18334002  .00000129  00000+0  24940-3 0  9994
2 56065  87.9509  53.6780 0000350 100.2945 259.8233 13.29429468 37617
ONEWEB-0577             
1 56066U 23043W   23335.21147090  .00000132  00000+0  25516-3 0  9992
2 56066  87.9608  53.6598 0001512  54.8479 305.2801 13.29902940 37643
ONEWEB-0578             
1 56067U 23043X   23335.76278826  .00000085  00000+0  17496-3 0  9990
2 56067  87.9262  68.7994 0001853 102.7855 257.3486 13.21825941 36491
ONEWEB-0579             
1 56068U 23043Y   23335.22345086  .00000192  00000+0  43354-3 0  9996
2 56068  87.9257  68.9080 0001174 105.4422 254.6842 13.21826996 36431
ONEWEB-0581             
1 56069U 23043Z   23335.29666751  .00000129  00000+0  25062-3 0  9995
2 56069  87.9484  53.6866 0000244  37.5948 322.5207 13.29228509 37628
ONEWEB-0609             
1 56070U 23043AA  23335.21955233  .00000293  00000+0  74285-3 0  9998
2 56070  87.8983  84.1546 0001572 106.6407 253.4896 13.15553559 35209
